MEAN_MOTION;ECCENTRICITY;INCLINATION;RA_OF_ASC_NODE;ARG_OF_PERICENTER;MEAN_ANOMALY;BSTAR;MEAN_MOTION_DOT;MEAN_MOTION_DDOT;TYPE
1.42205151;0.293976;0.4952;189.4983;89.9866;90.2192;0;-8.6E-7;0;Amateur
1.4220515;0.2939753;0.4953;189.3338;90.1671;311.1767;0;-8.8E-7;0;Amateur
1.42205151;0.2939746;0.495;189.0172;90.528;199.4644;0;-9.4E-7;0;Amateur
1.4220515;0.2939751;0.4952;188.9354;90.6178;311.1125;0;-9.5E-7;0;Amateur
1.42205152;0.2939754;0.4951;188.7311;90.8498;331.075;0;-9.9E-7;0;Amateur
1.42205149;0.2939756;0.4948;188.4297;91.1916;164.8624;0;-1.05E-6;0;Amateur
1.42205139;0.2939783;0.4949;188.1278;91.5303;310.9759;0;-1.11E-6;0;Amateur
1.42205137;0.2939806;0.4946;187.7429;91.9653;272.6901;0;-1.17E-6;0;Amateur
1.42205137;0.2939806;0.4946;187.7429;91.9653;272.6901;0;-1.17E-6;0;Amateur
1.42205128;0.2939818;0.4948;187.4957;92.2433;330.8819;0;-1.19E-6;0;Amateur
1.42205123;0.2939827;0.4947;187.2937;92.4704;310.8484;0;-1.21E-6;0;Amateur
1.42205101;0.2939832;0.4948;187.0727;92.7195;330.8406;0;-1.21E-6;0;Amateur
1.42205083;0.2939837;0.4947;186.867;92.9504;311.9804;0;-1.21E-6;0;Amateur
1.4220507;0.2939837;0.4948;186.6441;93.2015;330.785;0;-1.2E-6;0;Amateur
1.42205064;0.2939837;0.4947;186.4315;93.4393;310.7406;0;-1.19E-6;0;Amateur
1.42205053;0.2939827;0.4948;186.2151;93.684;330.6898;0;-1.17E-6;0;Amateur
1.42205048;0.2939827;0.4946;186.0361;93.8854;272.4537;0;-1.15E-6;0;Amateur
1.42205038;0.2939819;0.4949;185.7784;94.1741;330.5584;0;-1.12E-6;0;Amateur
1.42205043;0.2939825;0.4947;185.739;94.2222;89.631;0;-1.11E-6;0;Amateur
1.42205031;0.2939823;0.4948;185.5975;94.3774;272.3703;0;-1.1E-6;0;Amateur
1.42205007;0.2939818;0.495;185.3406;94.6654;330.5084;0;-1.07E-6;0;Amateur
1.42204988;0.293981;0.4952;184.8903;95.1684;319.5649;0;-1.01E-6;0;Amateur
1.42205002;0.2939786;0.4953;185.572;94.5106;272.2431;0;-9.8E-7;0;Amateur
1.4220497;0.293981;0.4953;184.4556;95.6566;318.1441;0;-9.5E-7;0;Amateur
1.42204994;0.293978;0.4953;185.2856;94.8369;89.4324;0;-9.4E-7;0;Amateur
1.42204986;0.2939766;0.4957;184.8952;95.2693;291.0209;0;-9.0E-7;0;Amateur
1.42204984;0.2939762;0.4957;184.6893;95.5006;272.1206;0;-8.7E-7;0;Amateur
1.42204989;0.2939749;0.4959;184.4089;95.8207;89.3215;0;-8.4E-7;0;Amateur
1.42204988;0.2939744;0.4959;184.2988;95.9417;235.0525;0;-8.3E-7;0;Amateur
1.42204987;0.2939741;0.496;184.2565;95.9867;272.0299;0;-8.3E-7;0;Amateur
1.42204967;0.2939727;0.4964;184.0247;96.2494;330.1759;0;-8.1E-7;0;Amateur
1.42204972;0.2939729;0.4962;183.9826;96.3004;89.2459;0;-8.1E-7;0;Amateur
1.42204974;0.2939713;0.4967;183.4161;96.9331;271.9127;0;-7.9E-7;0;Amateur
1.42204988;0.2939714;0.4969;183.1981;97.1789;290.7559;0;-7.9E-7;0;Amateur
1.42204973;0.293971;0.497;183.1881;97.1936;352.6797;0;-7.9E-7;0;Amateur
1.42204965;0.2939715;0.497;183.0045;97.3976;271.8531;0;-7.9E-7;0;Amateur
1.42204955;0.2939735;0.4973;182.596;97.8589;271.765;0;-8.0E-7;0;Amateur
1.42204942;0.2939745;0.4976;182.227;98.2781;234.7562;0;-8.3E-7;0;Amateur
1.42204962;0.2939757;0.498;181.9675;98.571;329.8372;0;-8.7E-7;0;Amateur
1.42204961;0.2939761;0.4981;181.7817;98.7789;271.6824;0;-8.9E-7;0;Amateur
1.42204942;0.2939782;0.4984;181.3715;99.2419;271.6096;0;-9.7E-7;0;Amateur
1.42204934;0.293979;0.4987;181.1558;99.4855;290.427;0;-1.02E-6;0;Amateur
1.42204924;0.2939789;0.4989;181.1481;99.4967;337.1894;0;-1.02E-6;0;Amateur
1.42204929;0.2939812;0.499;180.7633;99.9282;252.9245;0;-1.1E-6;0;Amateur
1.42204934;0.293983;0.4995;180.5235;100.1988;309.6363;0;-1.14E-6;0;Amateur
1.42204933;0.2939842;0.4996;180.3168;100.4307;290.2937;0;-1.17E-6;0;Amateur
1.42204906;0.2939868;0.5002;179.8827;100.9212;329.5312;0;-1.21E-6;0;Amateur
1.42204908;0.2939871;0.5005;179.6692;101.1612;326.7111;0;-1.22E-6;0;Amateur
1.42204899;0.2939886;0.5011;179.2356;101.6473;309.468;0;-1.22E-6;0;Amateur
1.42204899;0.2939886;0.5011;179.2356;101.6473;309.468;0;-1.22E-6;0;Amateur
1.42204899;0.2939887;0.5013;179.0263;101.882;290.1186;0;-1.2E-6;0;Amateur
1.42204896;0.2939886;0.5014;179.02;101.8912;329.3776;0;-1.2E-6;0;Amateur
1.42204894;0.2939886;0.5017;178.8043;102.1323;309.3646;0;-1.19E-6;0;Amateur
1.42204895;0.2939888;0.5018;178.6171;102.3422;252.6168;0;-1.17E-6;0;Amateur
1.42204891;0.2939887;0.502;178.5934;102.3687;290.0408;0;-1.17E-6;0;Amateur
1.42204887;0.2939885;0.5024;178.3708;102.6196;309.3098;0;-1.15E-6;0;Amateur
1.42204872;0.293988;0.5027;178.1539;102.8649;329.2037;0;-1.12E-6;0;Amateur
1.42204879;0.2939876;0.5031;177.9382;103.106;309.2354;0;-1.1E-6;0;Amateur
1.42204886;0.2939877;0.5035;177.7202;103.3524;329.1664;0;-1.07E-6;0;Amateur
1.42204889;0.2939876;0.5038;177.5044;103.5938;309.1607;0;-1.04E-6;0;Amateur
1.42204891;0.293988;0.5041;177.2885;103.8352;289.8418;0;-1.02E-6;0;Amateur
1.42204896;0.2939879;0.5044;177.0817;104.0676;270.9849;0;-9.9E-7;0;Amateur
1.42204901;0.2939874;0.505;176.8509;104.3297;329.0023;0;-9.6E-7;0;Amateur
1.42204902;0.2939867;0.5054;176.6375;104.5691;315.5965;0;-9.3E-7;0;Amateur
1.42204907;0.2939864;0.5055;176.4528;104.776;252.2354;0;-9.1E-7;0;Amateur
1.42204913;0.2939854;0.5058;176.2637;104.9911;240.8115;0;-8.9E-7;0;Amateur
1.422049;0.2939852;0.5062;176.2167;105.0451;334.4931;0;-8.9E-7;0;Amateur
1.42204904;0.2939844;0.5065;176.0149;105.2703;289.5625;0;-8.7E-7;0;Amateur
1.42204906;0.293983;0.5077;175.412;105.952;270.6283;0;-8.4E-7;0;Amateur
1.4220492;0.293983;0.5078;175.399;105.9678;308.7674;0;-8.4E-7;0;Amateur
1.42204929;0.2939822;0.5085;175.0114;106.4057;270.5538;0;-8.3E-7;0;Amateur
1.42204928;0.2939826;0.5087;174.8547;106.585;216.6896;0;-8.3E-7;0;Amateur
1.42204915;0.2939822;0.5091;174.8001;106.6479;328.5606;0;-8.3E-7;0;Amateur
1.42204904;0.2939824;0.5099;174.4061;107.0952;328.5089;0;-8.5E-7;0;Amateur
1.42204906;0.2939828;0.5103;174.2105;107.3158;308.5413;0;-8.7E-7;0;Amateur
1.42204914;0.2939832;0.5107;174.0138;107.5406;328.4318;0;-8.9E-7;0;Amateur
1.42204922;0.2939839;0.5112;173.8182;107.7614;308.4644;0;-9.2E-7;0;Amateur
1.42204924;0.2939843;0.5115;173.6263;107.9785;289.1579;0;-9.5E-7;0;Amateur
1.42204924;0.2939844;0.5116;173.6216;107.9861;328.3684;0;-9.5E-7;0;Amateur
1.42204929;0.2939847;0.5118;173.4374;108.1925;270.3069;0;-9.8E-7;0;Amateur
1.42204935;0.2939852;0.512;173.4313;108.2016;308.3941;0;-9.9E-7;0;Amateur
1.42204929;0.2939859;0.5125;173.2339;108.4271;328.2805;0;-1.03E-6;0;Amateur
1.42204933;0.2939867;0.5129;173.0382;108.648;308.3462;0;-1.07E-6;0;Amateur
1.42204942;0.2939883;0.5134;172.8411;108.8733;328.1977;0;-1.12E-6;0;Amateur
1.42204942;0.2939894;0.5138;172.6432;109.0964;308.2732;0;-1.16E-6;0;Amateur
1.42204933;0.2939898;0.5143;172.4419;109.3259;328.1275;0;-1.2E-6;0;Amateur
1.42204935;0.2939905;0.5146;172.2524;109.5379;270.1087;0;-1.23E-6;0;Amateur
1.42204941;0.2939911;0.5153;172.0401;109.7815;328.0586;0;-1.26E-6;0;Amateur
1.42204933;0.2939915;0.5162;171.6394;110.2331;288.816;0;-1.29E-6;0;Amateur
1.4220493;0.2939914;0.5163;171.6349;110.2406;327.9816;0;-1.29E-6;0;Amateur
1.4220493;0.2939917;0.5168;171.4332;110.4679;308.0599;0;-1.29E-6;0;Amateur
1.42204927;0.2939915;0.5174;171.2299;110.6999;330.4841;0;-1.29E-6;0;Amateur
1.42204939;0.293991;0.518;171.0287;110.9264;307.9905;0;-1.28E-6;0;Amateur
1.42204928;0.2939899;0.5186;170.8269;111.1567;327.864;0;-1.26E-6;0;Amateur
1.42204939;0.2939884;0.5191;170.6266;111.3824;307.8972;0;-1.25E-6;0;Amateur
1.42204942;0.2939882;0.5198;170.4253;111.6124;327.7802;0;-1.23E-6;0;Amateur
1.42204936;0.2939872;0.5203;170.2261;111.8372;307.8526;0;-1.2E-6;0;Amateur
1.42204929;0.293985;0.5209;170.0199;112.0749;9.249;0;-1.18E-6;0;Amateur
1.42204918;0.2939788;0.5221;169.6229;112.5257;9.1963;0;-1.12E-6;0;Amateur
1.42204916;0.2939782;0.5226;169.4419;112.7264;269.5972;0;-1.1E-6;0;Amateur
1.42204942;0.2939766;0.5234;169.2295;112.9718;350.3072;0;-1.07E-6;0;Amateur
1.42204956;0.2939726;0.5247;168.8456;113.408;327.481;0;-1.02E-6;0;Amateur
1.42204953;0.2939658;0.5266;168.2795;114.0534;307.4193;0;-9.6E-7;0;Amateur
1.42204953;0.2939658;0.5266;168.2795;114.0534;307.4193;0;-9.6E-7;0;Amateur
1.42204951;0.2939607;0.5278;167.9023;114.4875;356.6383;0;-9.3E-7;0;Amateur
1.42204954;0.2939594;0.5285;167.7289;114.6855;327.1668;0;-9.2E-7;0;Amateur
1.42204973;0.2939566;0.5297;167.3696;115.0981;327.0884;0;-9.2E-7;0;Amateur
1.42204966;0.2939543;0.5309;167.0145;115.5066;327.0065;0;-9.3E-7;0;Amateur
1.42204962;0.2939517;0.5315;166.8399;115.7058;307.1129;0;-9.4E-7;0;Amateur
1.42204971;0.2939519;0.5326;166.4924;116.1045;268.9779;0;-9.7E-7;0;Amateur
1.42204961;0.293951;0.5327;166.4618;116.1439;28.9196;0;-9.8E-7;0;Amateur
1.42204979;0.2939495;0.5334;166.31;116.3176;326.8725;0;-1.0E-6;0;Amateur
1.42204973;0.2939494;0.5339;166.1119;116.5472;28.8354;0;-1.04E-6;0;Amateur
1.42204981;0.2939485;0.5347;165.9601;116.7209;326.7714;0;-1.07E-6;0;Amateur
1.42204986;0.2939469;0.536;165.6038;117.1336;8.2709;0;-1.16E-6;0;Amateur
1.42204979;0.2939455;0.5365;165.4113;117.3542;28.6557;0;-1.21E-6;0;Amateur
1.42204979;0.2939442;0.5378;165.0873;117.7226;268.6953;0;-1.28E-6;0;Amateur
1.42204992;0.2939433;0.5387;164.8951;117.949;8.1154;0;-1.32E-6;0;Amateur
1.42204995;0.2939415;0.5401;164.5354;118.3626;7.9985;0;-1.37E-6;0;Amateur
1.42204989;0.2939397;0.5408;164.3571;118.567;0.0663;0;-1.38E-6;0;Amateur
1.42204981;0.293939;0.5407;164.3394;118.5866;28.4546;0;-1.38E-6;0;Amateur
1.42204983;0.2939352;0.5421;164.0113;118.9596;268.5036;0;-1.38E-6;0;Amateur
1.42204961;0.2939332;0.5431;163.8244;119.178;326.3088;0;-1.37E-6;0;Amateur
1.42204985;0.2939281;0.5445;163.4618;119.596;349.6234;0;-1.33E-6;0;Amateur
1.42204976;0.293925;0.5452;163.2629;119.8246;28.2046;0;-1.31E-6;0;Amateur
1.42204981;0.2939211;0.5467;162.9395;120.193;268.2493;0;-1.27E-6;0;Amateur
1.42204984;0.293915;0.5484;162.5506;120.6446;30.4775;0;-1.21E-6;0;Amateur
1.42204989;0.2939131;0.5493;162.3957;120.825;7.5471;0;-1.19E-6;0;Amateur
1.42204986;0.2939072;0.5509;162.0475;121.227;7.4581;0;-1.13E-6;0;Amateur
1.42204984;0.293904;0.5517;161.8795;121.42;341.4438;0;-1.11E-6;0;Amateur
1.42205016;0.2938971;0.5533;161.5212;121.8355;27.832;0;-1.06E-6;0;Amateur
1.42205014;0.2938941;0.5542;161.3736;122.0082;7.3097;0;-1.04E-6;0;Amateur
